{"type":"FeatureCollection","features":[{"type":"Feature","id":0,"geometry":{"type":"Polygon","coordinates":[[[110.11175054117129,-7.1387148334804333],[110.11356161996711,-7.1387183153131533],[110.11356510186192,-7.1369093510351744],[110.11175403017768,-7.136905870093587],[110.11175054117129,-7.1387148334804333]]]},"properties":{"FID":0,"Id":0,"X":402017.35904399998,"Y":9210922.1576499995,"Name":"A15","Nama_2":"2K-A15","BUFF_DIST":100,"ORIG_FID":1,"Shape_Leng":628.31853071800003,"Shape_Area":31415.926535899998,"Field":0}},{"type":"Feature","id":1,"geometry":{"type":"Polygon","coordinates":[[[110.11356161996711,-7.1387183153131533],[110.11537269966813,-7.1387217900416529],[110.11537617445136,-7.136912824874357],[110.11356510186192,-7.1369093510351744],[110.11356161996711,-7.1387183153131533]]]},"properties":{"FID":1,"Id":0,"X":402217.35904399998,"Y":9210922.1576499995,"Name":"A16","Nama_2":"2K-A16","BUFF_DIST":100,"ORIG_FID":2,"Shape_Leng":628.31853071800003,"Shape_Area":31415.926535899998,"Field":0}},{"type":"Feature","id":2,"geometry":{"type":"Polygon","coordinates":[[[110.1099429594005,-7.1369023820496142],[110.11175403017768,-7.136905870093587],[110.11175751827702,-7.1350969065636125],[110.10994645460954,-7.135093419412585],[110.1099429594005,-7.1369023820496142]]]},"properties":{"FID":2,"Id":0,"X":401817.35904399998,"Y":9211122.1576499995,"Name":"B14","Nama_2":"2K-B14","BUFF_DIST":100,"ORIG_FID":3,"Shape_Leng":628.31853071800003,"Shape_Area":31415.926535899998,"Field":0}},{"type":"Feature","id":3,"geometry":{"type":"Polygon","coordinates":[[[110.11175403017768,-7.136905870093587],[110.11356510186192,-7.1369093510351744],[110.11356858285154,-7.1351003866140719],[110.11175751827702,-7.1350969065636125],[110.11175403017768,-7.136905870093587]]]},"properties":{"FID":3,"Id":0,"X":402017.35904399998,"Y":9211122.1576499995,"Name":"B15","Nama_2":"2K-B15","BUFF_DIST":100,"ORIG_FID":4,"Shape_Leng":628.31853071800003,"Shape_Area":31415.926535899998,"Field":0}},{"type":"Feature","id":4,"geometry":{"type":"Polygon","coordinates":[[[110.11356510186192,-7.1369093510351744],[110.11537617445136,-7.136912824874357],[110.11537964833123,-7.1351038595639453],[110.11356858285154,-7.1351003866140719],[110.11356510186192,-7.1369093510351744]]]},"properties":{"FID":4,"Id":0,"X":402217.35904399998,"Y":9211122.1576499995,"Name":"B16","Nama_2":"2K-B16","BUFF_DIST":100,"ORIG_FID":5,"Shape_Leng":628.31853071800003,"Shape_Area":31415.926535899998,"Field":0}},{"type":"Feature","id":5,"geometry":{"type":"Polygon","coordinates":[[[110.11537617445136,-7.136912824874357],[110.11718724794413,-7.1369162916111186],[110.11719071471427,-7.1351073254132169],[110.11537964833123,-7.1351038595639453],[110.11537617445136,-7.136912824874357]]]},"properties":{"FID":5,"Id":0,"X":402417.35904399998,"Y":9211122.1576499995,"Name":"B17","Nama_2":"2K-B17","BUFF_DIST":100,"ORIG_FID":6,"Shape_Leng":628.31853071800003,"Shape_Area":31415.926535899998,"Field":0}},{"type":"Feature","id":6,"geometry":{"type":"Polygon","coordinates":[[[110.11718724794413,-7.1369162916111186],[110.11899832233843,-7.1369197512454425],[110.11900178199876,-7.1351107841618671],[110.11719071471427,-7.1351073254132169],[110.11718724794413,-7.1369162916111186]]]},"properties":{"FID":6,"Id":0,"X":402617.35904399998,"Y":9211122.1576499995,"Name":"B18","Nama_2":"2K-B18","BUFF_DIST":100,"ORIG_FID":7,"Shape_Leng":628.31853071800003,"Shape_Area":31415.926535899998,"Field":0}},{"type":"Feature","id":7,"geometry":{"type":"Polygon","coordinates":[[[110.11899832233843,-7.1369197512454425],[110.12080939763237,-7.13692320377731],[110.12081285018294,-7.1351142358098807],[110.11900178199876,-7.1351107841618671],[110.11899832233843,-7.1369197512454425]]]},"properties":{"FID":7,"Id":0,"X":402817.35904399998,"Y":9211122.1576499995,"Name":"B19","Nama_2":"2K-B19","BUFF_DIST":100,"ORIG_FID":8,"Shape_Leng":628.31853071800003,"Shape_Area":31415.926535899998,"Field":0}},{"type":"Feature","id":8,"geometry":{"type":"Polygon","coordinates":[[[110.08640271031365,-7.1350474403054402],[110.08821376202145,-7.1350510197622663],[110.08821734161447,-7.1332420678392374],[110.08640629701428,-7.1332384892989866],[110.08640271031365,-7.1350474403054402]]]},"properties":{"FID":8,"Id":0,"X":399217.35904399998,"Y":9211322.1576499995,"Name":"C1","Nama_2":"2K-C1","BUFF_DIST":100,"ORIG_FID":9,"Shape_Leng":628.31853071800003,"Shape_Area":31415.926535899998,"Field":0}},{"type":"Feature","id":9,"geometry":{"type":"Polygon","coordinates":[[[110.08821376202145,-7.1350510197622663],[110.09002481466031,-7.1350545921187525],[110.09002838714568,-7.1332456392809664],[110.08821734161447,-7.1332420678392374],[110.08821376202145,-7.1350510197622663]]]},"properties":{"FID":9,"Id":0,"X":399417.35904399998,"Y":9211322.1576499995,"Name":"C2","Nama_2":"2K-C2","BUFF_DIST":100,"ORIG_FID":10,"Shape_Leng":628.31853071800003,"Shape_Area":31415.926535899998,"Field":0}},{"type":"Feature","id":10,"geometry":{"type":"Polygon","coordinates":[[[110.09002481466031,-7.1350545921187525],[110.09183586822839,-7.1350581573748801],[110.0918394336061,-7.133249203624155],[110.09002838714568,-7.1332456392809664],[110.09002481466031,-7.1350545921187525]]]},"properties":{"FID":10,"Id":0,"X":399617.35904399998,"Y":9211322.1576499995,"Name":"C3","Nama_2":"2K-C3","BUFF_DIST":100,"ORIG_FID":11,"Shape_Leng":628.31853071800003,"Shape_Area":31415.926535899998,"Field":0}},{"type":"Feature","id":11,"geometry":{"type":"Polygon","coordinates":[[[110.09183586822839,-7.1350581573748801],[110.09364692272383,-7.1350617155306315],[110.09365048099387,-7.1332527608687863],[110.0918394336061,-7.133249203624155],[110.09183586822839,-7.1350581573748801]]]},"properties":{"FID":11,"Id":0,"X":399817.35904399998,"Y":9211322.1576499995,"Name":"C4","Nama_2":"2K-C4","BUFF_DIST":100,"ORIG_FID":12,"Shape_Leng":628.31853071800003,"Shape_Area":31415.926535899998,"Field":0}},{"type":"Feature","id":12,"geometry":{"type":"Polygon","coordinates":[[[110.09364692272383,-7.1350617155306315],[110.09545797814481,-7.1350652665859897],[110.09546152930714,-7.1332563110148426],[110.09365048099387,-7.1332527608687863],[110.09364692272383,-7.1350617155306315]]]},"properties":{"FID":12,"Id":0,"X":400017.35904399998,"Y":9211322.1576499995,"Name":"C5","Nama_2":"2K-C5","BUFF_DIST":100,"ORIG_FID":13,"Shape_Leng":628.31853071800003,"Shape_Area":31415.926535899998,"Field":0}},{"type":"Feature","id":13,"geometry":{"type":"Polygon","coordinates":[[[110.09545797814481,-7.1350652665859897],[110.09726903448946,-7.1350688105409379],[110.09727257854409,-7.133259854062306],[110.09546152930714,-7.1332563110148426],[110.09545797814481,-7.1350652665859897]]]},"properties":{"FID":13,"Id":0,"X":400217.35904399998,"Y":9211322.1576499995,"Name":"C6","Nama_2":"2K-C6","BUFF_DIST":100,"ORIG_FID":14,"Shape_Leng":628.31853071800003,"Shape_Area":31415.926535899998,"Field":0}},{"type":"Feature","id":14,"geometry":{"type":"Polygon","coordinates":[[[110.09726903448946,-7.1350688105409379],[110.09908009175594,-7.1350723473954565],[110.09908362870283,-7.1332633900111588],[110.09727257854409,-7.133259854062306],[110.09726903448946,-7.1350688105409379]]]},"properties":{"FID":14,"Id":0,"X":400417.35904399998,"Y":9211322.1576499995,"Name":"C7","Nama_2":"2K-C7","BUFF_DIST":100,"ORIG_FID":15,"Shape_Leng":628.31853071800003,"Shape_Area":31415.926535899998,"Field":0}},{"type":"Feature","id":15,"geometry":{"type":"Polygon","coordinates":[[[110.09908009175594,-7.1350723473954565],[110.10089114994237,-7.1350758771495295],[110.10089467978152,-7.1332669188613833],[110.09908362870283,-7.1332633900111588],[110.09908009175594,-7.1350723473954565]]]},"properties":{"FID":15,"Id":0,"X":400617.35904399998,"Y":9211322.1576499995,"Name":"C8","Nama_2":"2K-C8","BUFF_DIST":100,"ORIG_FID":16,"Shape_Leng":628.31853071800003,"Shape_Area":31415.926535899998,"Field":0}},{"type":"Feature","id":16,"geometry":{"type":"Polygon","coordinates":[[[110.10089114994237,-7.1350758771495295],[110.10270220904695,-7.1350793998031374],[110.10270573177833,-7.1332704406129626],[110.10089467978152,-7.1332669188613833],[110.10089114994237,-7.1350758771495295]]]},"properties":{"FID":16,"Id":0,"X":400817.35904399998,"Y":9211322.1576499995,"Name":"C9","Nama_2":"2K-C9","BUFF_DIST":100,"ORIG_FID":17,"Shape_Leng":628.31853071800003,"Shape_Area":31415.926535899998,"Field":0}},{"type":"Feature","id":17,"geometry":{"type":"Polygon","coordinates":[[[110.10270220904695,-7.1350793998031374],[110.10451326906782,-7.1350829153562652],[110.10451678469141,-7.1332739552658779],[110.10270573177833,-7.1332704406129626],[110.10270220904695,-7.1350793998031374]]]},"properties":{"FID":17,"Id":0,"X":401017.35904399998,"Y":9211322.1576499995,"Name":"C10","Nama_2":"2K-C10","BUFF_DIST":100,"ORIG_FID":18,"Shape_Leng":628.31853071800003,"Shape_Area":31415.926535899998,"Field":0}},{"type":"Feature","id":18,"geometry":{"type":"Polygon","coordinates":[[[110.10994645460954,-7.135093419412585],[110.11175751827702,-7.1350969065636125],[110.1117610054693,-7.1332879428905605],[110.10994994890969,-7.133284456632472],[110.10994645460954,-7.135093419412585]]]},"properties":{"FID":18,"Id":0,"X":401817.35904399998,"Y":9211322.1576499995,"Name":"C14","Nama_2":"2K-C14","BUFF_DIST":100,"ORIG_FID":19,"Shape_Leng":628.31853071800003,"Shape_Area":31415.926535899998,"Field":0}},{"type":"Feature","id":19,"geometry":{"type":"Polygon","coordinates":[[[110.11175751827702,-7.1350969065636125],[110.11356858285154,-7.1351003866140719],[110.11357206293596,-7.1332914220499006],[110.1117610054693,-7.1332879428905605],[110.11175751827702,-7.1350969065636125]]]},"properties":{"FID":19,"Id":0,"X":402017.35904399998,"Y":9211322.1576499995,"Name":"C15","Nama_2":"2K-C15","BUFF_DIST":100,"ORIG_FID":20,"Shape_Leng":628.31853071800003,"Shape_Area":31415.926535899998,"Field":0}},{"type":"Feature","id":20,"geometry":{"type":"Polygon","coordinates":[[[110.11356858285154,-7.1351003866140719],[110.11537964833123,-7.1351038595639453],[110.11538312130776,-7.1332948941104712],[110.11357206293596,-7.1332914220499006],[110.11356858285154,-7.1351003866140719]]]},"properties":{"FID":20,"Id":0,"X":402217.35904399998,"Y":9211322.1576499995,"Name":"C16","Nama_2":"2K-C16","BUFF_DIST":100,"ORIG_FID":21,"Shape_Leng":628.31853071800003,"Shape_Area":31415.926535899998,"Field":0}},{"type":"Feature","id":21,"geometry":{"type":"Polygon","coordinates":[[[110.11537964833123,-7.1351038595639453],[110.11719071471427,-7.1351073254132169],[110.11719418058289,-7.1332983590722581],[110.11538312130776,-7.1332948941104712],[110.11537964833123,-7.1351038595639453]]]},"properties":{"FID":21,"Id":0,"X":402417.35904399998,"Y":9211322.1576499995,"Name":"C17","Nama_2":"2K-C17","BUFF_DIST":100,"ORIG_FID":22,"Shape_Leng":628.31853071800003,"Shape_Area":31415.926535899998,"Field":0}},{"type":"Feature","id":22,"geometry":{"type":"Polygon","coordinates":[[[110.11719071471427,-7.1351073254132169],[110.11900178199876,-7.1351107841618671],[110.11900524075948,-7.1333018169352433],[110.11719418058289,-7.1332983590722581],[110.11719071471427,-7.1351073254132169]]]},"properties":{"FID":22,"Id":0,"X":402617.35904399998,"Y":9211322.1576499995,"Name":"C18","Nama_2":"2K-C18","BUFF_DIST":100,"ORIG_FID":23,"Shape_Leng":628.31853071800003,"Shape_Area":31415.926535899998,"Field":0}},{"type":"Feature","id":23,"geometry":{"type":"Polygon","coordinates":[[[110.11900178199876,-7.1351107841618671],[110.12081285018294,-7.1351142358098807],[110.1208163018357,-7.1333052676994084],[110.11900524075948,-7.1333018169352433],[110.11900178199876,-7.1351107841618671]]]},"properties":{"FID":23,"Id":0,"X":402817.35904399998,"Y":9211322.1576499995,"Name":"C19","Nama_2":"2K-C19","BUFF_DIST":100,"ORIG_FID":24,"Shape_Leng":628.31853071800003,"Shape_Area":31415.926535899998,"Field":0}},{"type":"Feature","id":24,"geometry":{"type":"Polygon","coordinates":[[[110.12081285018294,-7.1351142358098807],[110.1226239192649,-7.13511768035724],[110.1226273638097,-7.1333087113647382],[110.1208163018357,-7.1333052676994084],[110.12081285018294,-7.1351142358098807]]]},"properties":{"FID":24,"Id":0,"X":403017.35904399998,"Y":9211322.1576499995,"Name":"C20","Nama_2":"2K-C20","BUFF_DIST":100,"ORIG_FID":25,"Shape_Leng":628.31853071800003,"Shape_Area":31415.926535899998,"Field":0}},{"type":"Feature","id":25,"geometry":{"type":"Polygon","coordinates":[[[110.1226239192649,-7.13511768035724],[110.12443498924279,-7.1351211178039273],[110.12443842667963,-7.133312147931214],[110.1226273638097,-7.1333087113647382],[110.1226239192649,-7.13511768035724]]]},"properties":{"FID":25,"Id":0,"X":403217.35904399998,"Y":9211322.1576499995,"Name":"C21","Nama_2":"2K-C21","BUFF_DIST":100,"ORIG_FID":26,"Shape_Leng":628.31853071800003,"Shape_Area":31415.926535899998,"Field":0}},{"type":"Feature","id":26,"geometry":{"type":"Polygon","coordinates":[[[110.08640629701428,-7.1332384892989866],[110.08821734161447,-7.1332420678392374],[110.08822092027641,-7.1314331157730777],[110.08640988278202,-7.1314295381493942],[110.08640629701428,-7.1332384892989866]]]},"properties":{"FID":26,"Id":0,"X":399217.35904399998,"Y":9211522.1576499995,"Name":"D1","Nama_2":"2K-D1","BUFF_DIST":100,"ORIG_FID":27,"Shape_Leng":628.31853071800003,"Shape_Area":31415.926535899998,"Field":0}},{"type":"Feature","id":27,"geometry":{"type":"Polygon","coordinates":[[[110.08821734161447,-7.1332420678392374],[110.09002838714568,-7.1332456392809664],[110.09003195870186,-7.1314366863000567],[110.08822092027641,-7.1314331157730777],[110.08821734161447,-7.1332420678392374]]]},"properties":{"FID":27,"Id":0,"X":399417.35904399998,"Y":9211522.1576499995,"Name":"D2","Nama_2":"2K-D2","BUFF_DIST":100,"ORIG_FID":28,"Shape_Leng":628.31853071800003,"Shape_Area":31415.926535899998,"Field":0}},{"type":"Feature","id":28,"geometry":{"type":"Polygon","coordinates":[[[110.09002838714568,-7.1332456392809664],[110.0918394336061,-7.133249203624155],[110.09184299805646,-7.1314402497303133],[110.09003195870186,-7.1314366863000567],[110.09002838714568,-7.1332456392809664]]]},"properties":{"FID":28,"Id":0,"X":399617.35904399998,"Y":9211522.1576499995,"Name":"D3","Nama_2":"2K-D3","BUFF_DIST":100,"ORIG_FID":29,"Shape_Leng":628.31853071800003,"Shape_Area":31415.926535899998,"Field":0}},{"type":"Feature","id":29,"geometry":{"type":"Polygon","coordinates":[[[110.0918394336061,-7.133249203624155],[110.09365048099387,-7.1332527608687863],[110.0936540383384,-7.1314438060638308],[110.09184299805646,-7.1314402497303133],[110.0918394336061,-7.133249203624155]]]},"properties":{"FID":29,"Id":0,"X":399817.35904399998,"Y":9211522.1576499995,"Name":"D4","Nama_2":"2K-D4","BUFF_DIST":100,"ORIG_FID":30,"Shape_Leng":628.31853071800003,"Shape_Area":31415.926535899998,"Field":0}},{"type":"Feature","id":30,"geometry":{"type":"Polygon","coordinates":[[[110.09365048099387,-7.1332527608687863],[110.09546152930714,-7.1332563110148426],[110.09546507954583,-7.1314473553005913],[110.0936540383384,-7.1314438060638308],[110.09365048099387,-7.1332527608687863]]]},"properties":{"FID":30,"Id":0,"X":400017.35904399998,"Y":9211522.1576499995,"Name":"D5","Nama_2":"2K-D5","BUFF_DIST":100,"ORIG_FID":31,"Shape_Leng":628.31853071800003,"Shape_Area":31415.926535899998,"Field":0}},{"type":"Feature","id":31,"geometry":{"type":"Polygon","coordinates":[[[110.09546152930714,-7.1332563110148426],[110.09727257854409,-7.133259854062306],[110.09727612167691,-7.1314508974405779],[110.09546507954583,-7.1314473553005913],[110.09546152930714,-7.1332563110148426]]]},"properties":{"FID":31,"Id":0,"X":400217.35904399998,"Y":9211522.1576499995,"Name":"D6","Nama_2":"2K-D6","BUFF_DIST":100,"ORIG_FID":32,"Shape_Leng":628.31853071800003,"Shape_Area":31415.926535899998,"Field":0}},{"type":"Feature","id":32,"geometry":{"type":"Polygon","coordinates":[[[110.09727257854409,-7.133259854062306],[110.09908362870283,-7.1332633900111588],[110.09908716472978,-7.1314544324837712],[110.09727612167691,-7.1314508974405779],[110.09727257854409,-7.133259854062306]]]},"properties":{"FID":32,"Id":0,"X":400417.35904399998,"Y":9211522.1576499995,"Name":"D7","Nama_2":"2K-D7","BUFF_DIST":100,"ORIG_FID":33,"Shape_Leng":628.31853071800003,"Shape_Area":31415.926535899998,"Field":0}},{"type":"Feature","id":33,"geometry":{"type":"Polygon","coordinates":[[[110.09908362870283,-7.1332633900111588],[110.10089467978152,-7.1332669188613833],[110.10089820870256,-7.1314579604301551],[110.09908716472978,-7.1314544324837712],[110.09908362870283,-7.1332633900111588]]]},"properties":{"FID":33,"Id":0,"X":400617.35904399998,"Y":9211522.1576499995,"Name":"D8","Nama_2":"2K-D8","BUFF_DIST":100,"ORIG_FID":34,"Shape_Leng":628.31853071800003,"Shape_Area":31415.926535899998,"Field":0}},{"type":"Feature","id":34,"geometry":{"type":"Polygon","coordinates":[[[110.10089467978152,-7.1332669188613833],[110.10270573177833,-7.1332704406129626],[110.10270925359346,-7.1314614812797101],[110.10089820870256,-7.1314579604301551],[110.10089467978152,-7.1332669188613833]]]},"properties":{"FID":34,"Id":0,"X":400817.35904399998,"Y":9211522.1576499995,"Name":"D9","Nama_2":"2K-D9","BUFF_DIST":100,"ORIG_FID":35,"Shape_Leng":628.31853071800003,"Shape_Area":31415.926535899998,"Field":0}},{"type":"Feature","id":35,"geometry":{"type":"Polygon","coordinates":[[[110.10270573177833,-7.1332704406129626],[110.10451678469141,-7.1332739552658779],[110.1045202994006,-7.1314649950324212],[110.10270925359346,-7.1314614812797101],[110.10270573177833,-7.1332704406129626]]]},"properties":{"FID":35,"Id":0,"X":401017.35904399998,"Y":9211522.1576499995,"Name":"D10","Nama_2":"2K-D10","BUFF_DIST":100,"ORIG_FID":36,"Shape_Leng":628.31853071800003,"Shape_Area":31415.926535899998,"Field":0}},{"type":"Feature","id":36,"geometry":{"type":"Polygon","coordinates":[[[110.10451678469141,-7.1332739552658779],[110.10632783851889,-7.1332774628201134],[110.10633134612213,-7.1314685016882695],[110.1045202994006,-7.1314649950324212],[110.10451678469141,-7.1332739552658779]]]},"properties":{"FID":36,"Id":0,"X":401217.35904399998,"Y":9211522.1576499995,"Name":"D11","Nama_2":"2K-D11","BUFF_DIST":100,"ORIG_FID":37,"Shape_Leng":628.31853071800003,"Shape_Area":31415.926535899998,"Field":0}},{"type":"Feature","id":37,"geometry":{"type":"Polygon","coordinates":[[[110.10813889325894,-7.1332809632756504],[110.10994994890969,-7.133284456632472],[110.10995344230096,-7.1314754937093099],[110.10814239375621,-7.1314720012472383],[110.10813889325894,-7.1332809632756504]]]},"properties":{"FID":37,"Id":0,"X":401617.35904399998,"Y":9211522.1576499995,"Name":"D13","Nama_2":"2K-D13","BUFF_DIST":100,"ORIG_FID":38,"Shape_Leng":628.31853071800003,"Shape_Area":31415.926535899998,"Field":0}},{"type":"Feature","id":38,"geometry":{"type":"Polygon","coordinates":[[[110.10994994890969,-7.133284456632472],[110.1117610054693,-7.1332879428905605],[110.11176449175458,-7.1314789790744673],[110.10995344230096,-7.1314754937093099],[110.10994994890969,-7.133284456632472]]]},"properties":{"FID":38,"Id":0,"X":401817.35904399998,"Y":9211522.1576499995,"Name":"D14","Nama_2":"2K-D14","BUFF_DIST":100,"ORIG_FID":39,"Shape_Leng":628.31853071800003,"Shape_Area":31415.926535899998,"Field":0}},{"type":"Feature","id":39,"geometry":{"type":"Polygon","coordinates":[[[110.1117610054693,-7.1332879428905605],[110.11357206293596,-7.1332914220499006],[110.11357554211523,-7.1314824573426918],[110.11176449175458,-7.1314789790744673],[110.1117610054693,-7.1332879428905605]]]},"properties":{"FID":39,"Id":0,"X":402017.35904399998,"Y":9211522.1576499995,"Name":"D15","Nama_2":"2K-D15","BUFF_DIST":100,"ORIG_FID":40,"Shape_Leng":628.31853071800003,"Shape_Area":31415.926535899998,"Field":0}},{"type":"Feature","id":40,"geometry":{"type":"Polygon","coordinates":[[[110.11357206293596,-7.1332914220499006],[110.11538312130776,-7.1332948941104712],[110.11538659338098,-7.1314859285139676],[110.11357554211523,-7.1314824573426918],[110.11357206293596,-7.1332914220499006]]]},"properties":{"FID":40,"Id":0,"X":402217.35904399998,"Y":9211522.1576499995,"Name":"D16","Nama_2":"2K-D16","BUFF_DIST":100,"ORIG_FID":41,"Shape_Leng":628.31853071800003,"Shape_Area":31415.926535899998,"Field":0}},{"type":"Feature","id":41,"geometry":{"type":"Polygon","coordinates":[[[110.11538312130776,-7.1332948941104712],[110.11719418058289,-7.1332983590722581],[110.11719764555005,-7.1314893925882767],[110.11538659338098,-7.1314859285139676],[110.11538312130776,-7.1332948941104712]]]},"properties":{"FID":41,"Id":0,"X":402417.35904399998,"Y":9211522.1576499995,"Name":"D17","Nama_2":"2K-D17","BUFF_DIST":100,"ORIG_FID":42,"Shape_Leng":628.31853071800003,"Shape_Area":31415.926535899998,"Field":0}},{"type":"Feature","id":42,"geometry":{"type":"Polygon","coordinates":[[[110.11719418058289,-7.1332983590722581],[110.11900524075948,-7.1333018169352433],[110.11900869862056,-7.1314928495656016],[110.11719764555005,-7.1314893925882767],[110.11719418058289,-7.1332983590722581]]]},"properties":{"FID":42,"Id":0,"X":402617.35904399998,"Y":9211522.1576499995,"Name":"D18","Nama_2":"2K-D18","BUFF_DIST":100,"ORIG_FID":43,"Shape_Leng":628.31853071800003,"Shape_Area":31415.926535899998,"Field":0}},{"type":"Feature","id":43,"geometry":{"type":"Polygon","coordinates":[[[110.11900524075948,-7.1333018169352433],[110.1208163018357,-7.1333052676994084],[110.12081975259069,-7.131496299445927],[110.11900869862056,-7.1314928495656016],[110.11900524075948,-7.1333018169352433]]]},"properties":{"FID":43,"Id":0,"X":402817.35904399998,"Y":9211522.1576499995,"Name":"D19","Nama_2":"2K-D19","BUFF_DIST":100,"ORIG_FID":44,"Shape_Leng":628.31853071800003,"Shape_Area":31415.926535899998,"Field":0}},{"type":"Feature","id":44,"geometry":{"type":"Polygon","coordinates":[[[110.1208163018357,-7.1333052676994084],[110.1226273638097,-7.1333087113647382],[110.12263080745859,-7.1314997422292326],[110.12081975259069,-7.131496299445927],[110.1208163018357,-7.1333052676994084]]]},"properties":{"FID":44,"Id":0,"X":403017.35904399998,"Y":9211522.1576499995,"Name":"D20","Nama_2":"2K-D20","BUFF_DIST":100,"ORIG_FID":45,"Shape_Leng":628.31853071800003,"Shape_Area":31415.926535899998,"Field":0}},{"type":"Feature","id":45,"geometry":{"type":"Polygon","coordinates":[[[110.08822092027641,-7.1314331157730777],[110.09003195870186,-7.1314366863000567],[110.09003552932883,-7.1296277331760427],[110.08822449800735,-7.1296241635638076],[110.08822092027641,-7.1314331157730777]]]},"properties":{"FID":45,"Id":0,"X":399417.35904399998,"Y":9211722.1576499995,"Name":"E2","Nama_2":"2K-E2","BUFF_DIST":100,"ORIG_FID":46,"Shape_Leng":628.31853071800003,"Shape_Area":31415.926535899998,"Field":0}},{"type":"Feature","id":46,"geometry":{"type":"Polygon","coordinates":[[[110.09003195870186,-7.1314366863000567],[110.09184299805646,-7.1314402497303133],[110.09184656157947,-7.1296312956933745],[110.09003552932883,-7.1296277331760427],[110.09003195870186,-7.1314366863000567]]]},"properties":{"FID":46,"Id":0,"X":399617.35904399998,"Y":9211722.1576499995,"Name":"E3","Nama_2":"2K-E3","BUFF_DIST":100,"ORIG_FID":47,"Shape_Leng":628.31853071800003,"Shape_Area":31415.926535899998,"Field":0}},{"type":"Feature","id":47,"geometry":{"type":"Polygon","coordinates":[[[110.09184299805646,-7.1314402497303133],[110.0936540383384,-7.1314438060638308],[110.09365759475745,-7.1296348511157852],[110.09184656157947,-7.1296312956933745],[110.09184299805646,-7.1314402497303133]]]},"properties":{"FID":47,"Id":0,"X":399817.35904399998,"Y":9211722.1576499995,"Name":"E4","Nama_2":"2K-E4","BUFF_DIST":100,"ORIG_FID":48,"Shape_Leng":628.31853071800003,"Shape_Area":31415.926535899998,"Field":0}},{"type":"Feature","id":48,"geometry":{"type":"Polygon","coordinates":[[[110.0936540383384,-7.1314438060638308],[110.09546507954583,-7.1314473553005913],[110.09546862886087,-7.1296383994432579],[110.09365759475745,-7.1296348511157852],[110.0936540383384,-7.1314438060638308]]]},"properties":{"FID":48,"Id":0,"X":400017.35904399998,"Y":9211722.1576499995,"Name":"E5","Nama_2":"2K-E5","BUFF_DIST":100,"ORIG_FID":49,"Shape_Leng":628.31853071800003,"Shape_Area":31415.926535899998,"Field":0}},{"type":"Feature","id":49,"geometry":{"type":"Polygon","coordinates":[[[110.09546507954583,-7.1314473553005913],[110.09727612167691,-7.1314508974405779],[110.09727966388795,-7.1296419406757732],[110.09546862886087,-7.1296383994432579],[110.09546507954583,-7.1314473553005913]]]},"properties":{"FID":49,"Id":0,"X":400217.35904399998,"Y":9211722.1576499995,"Name":"E6","Nama_2":"2K-E6","BUFF_DIST":100,"ORIG_FID":50,"Shape_Leng":628.31853071800003,"Shape_Area":31415.926535899998,"Field":0}},{"type":"Feature","id":50,"geometry":{"type":"Polygon","coordinates":[[[110.09727612167691,-7.1314508974405779],[110.09908716472978,-7.1314544324837712],[110.09909069983678,-7.129645474813314],[110.09727966388795,-7.1296419406757732],[110.09727612167691,-7.1314508974405779]]]},"properties":{"FID":50,"Id":0,"X":400417.35904399998,"Y":9211722.1576499995,"Name":"E7","Nama_2":"2K-E7","BUFF_DIST":100,"ORIG_FID":51,"Shape_Leng":628.31853071800003,"Shape_Area":31415.926535899998,"Field":0}},{"type":"Feature","id":51,"geometry":{"type":"Polygon","coordinates":[[[110.09908716472978,-7.1314544324837712],[110.10089820870256,-7.1314579604301551],[110.10090173670551,-7.1296490018558627],[110.09909069983678,-7.129645474813314],[110.09908716472978,-7.1314544324837712]]]},"properties":{"FID":51,"Id":0,"X":400617.35904399998,"Y":9211722.1576499995,"Name":"E8","Nama_2":"2K-E8","BUFF_DIST":100,"ORIG_FID":52,"Shape_Leng":628.31853071800003,"Shape_Area":31415.926535899998,"Field":0}},{"type":"Feature","id":52,"geometry":{"type":"Polygon","coordinates":[[[110.10089820870256,-7.1314579604301551],[110.10270925359346,-7.1314614812797101],[110.10271277449235,-7.1296525218034033],[110.10090173670551,-7.1296490018558627],[110.10089820870256,-7.1314579604301551]]]},"properties":{"FID":52,"Id":0,"X":400817.35904399998,"Y":9211722.1576499995,"Name":"E9","Nama_2":"2K-E9","BUFF_DIST":100,"ORIG_FID":53,"Shape_Leng":628.31853071800003,"Shape_Area":31415.926535899998,"Field":0}},{"type":"Feature","id":53,"geometry":{"type":"Polygon","coordinates":[[[110.10814239375621,-7.1314720012472383],[110.10995344230096,-7.1314754937093099],[110.1099569347834,-7.1296665306431191],[110.10814589334278,-7.1296630390757914],[110.10814239375621,-7.1314720012472383]]]},"properties":{"FID":53,"Id":0,"X":401617.35904399998,"Y":9211722.1576499995,"Name":"E13","Nama_2":"2K-E13","BUFF_DIST":100,"ORIG_FID":54,"Shape_Leng":628.31853071800003,"Shape_Area":31415.926535899998,"Field":0}},{"type":"Feature","id":54,"geometry":{"type":"Polygon","coordinates":[[[110.10995344230096,-7.1314754937093099],[110.11176449175458,-7.1314789790744673],[110.11176797713287,-7.1296700151153507],[110.1099569347834,-7.1296665306431191],[110.10995344230096,-7.1314754937093099]]]},"properties":{"FID":54,"Id":0,"X":401817.35904399998,"Y":9211722.1576499995,"Name":"E14","Nama_2":"2K-E14","BUFF_DIST":100,"ORIG_FID":55,"Shape_Leng":628.31853071800003,"Shape_Area":31415.926535899998,"Field":0}},{"type":"Feature","id":55,"geometry":{"type":"Polygon","coordinates":[[[110.11176449175458,-7.1314789790744673],[110.11357554211523,-7.1314824573426918],[110.11357902038932,-7.1296734924924676],[110.11176797713287,-7.1296700151153507],[110.11176449175458,-7.1314789790744673]]]},"properties":{"FID":55,"Id":0,"X":402017.35904399998,"Y":9211722.1576499995,"Name":"E15","Nama_2":"2K-E15","BUFF_DIST":100,"ORIG_FID":56,"Shape_Leng":628.31853071800003,"Shape_Area":31415.926535899998,"Field":0}},{"type":"Feature","id":56,"geometry":{"type":"Polygon","coordinates":[[[110.11357554211523,-7.1314824573426918],[110.11538659338098,-7.1314859285139676],[110.11539006455089,-7.1296769627744547],[110.11357902038932,-7.1296734924924676],[110.11357554211523,-7.1314824573426918]]]},"properties":{"FID":56,"Id":0,"X":402217.35904399998,"Y":9211722.1576499995,"Name":"E16","Nama_2":"2K-E16","BUFF_DIST":100,"ORIG_FID":57,"Shape_Leng":628.31853071800003,"Shape_Area":31415.926535899998,"Field":0}},{"type":"Feature","id":57,"geometry":{"type":"Polygon","coordinates":[[[110.11719764555005,-7.1314893925882767],[110.11900869862056,-7.1314928495656016],[110.11901215558206,-7.1296838820529658],[110.11720110961576,-7.1296804259612934],[110.11719764555005,-7.1314893925882767]]]},"properties":{"FID":57,"Id":0,"X":402617.35904399998,"Y":9211722.1576499995,"Name":"E18","Nama_2":"2K-E18","BUFF_DIST":100,"ORIG_FID":58,"Shape_Leng":628.31853071800003,"Shape_Area":31415.926535899998,"Field":0}},{"type":"Feature","id":58,"geometry":{"type":"Polygon","coordinates":[[[110.08822449800735,-7.1296241635638076],[110.09003552932883,-7.1296277331760427],[110.09003909902665,-7.1278187799090107],[110.08822807480726,-7.1278152112115114],[110.08822449800735,-7.1296241635638076]]]},"properties":{"FID":58,"Id":0,"X":399417.35904399998,"Y":9211922.1576499995,"Name":"F2","Nama_2":"2K-F2","BUFF_DIST":100,"ORIG_FID":59,"Shape_Leng":628.31853071800003,"Shape_Area":31415.926535899998,"Field":0}},{"type":"Feature","id":59,"geometry":{"type":"Polygon","coordinates":[[[110.09003552932883,-7.1296277331760427],[110.09184656157947,-7.1296312956933745],[110.09185012417518,-7.1278223415134256],[110.09003909902665,-7.1278187799090107],[110.09003552932883,-7.1296277331760427]]]},"properties":{"FID":59,"Id":0,"X":399617.35904399998,"Y":9211922.1576499995,"Name":"F3","Nama_2":"2K-F3","BUFF_DIST":100,"ORIG_FID":60,"Shape_Leng":628.31853071800003,"Shape_Area":31415.926535899998,"Field":0}},{"type":"Feature","id":60,"geometry":{"type":"Polygon","coordinates":[[[110.09184656157947,-7.1296312956933745],[110.09365759475745,-7.1296348511157852],[110.09366115025102,-7.1278258960247358],[110.09185012417518,-7.1278223415134256],[110.09184656157947,-7.1296312956933745]]]},"properties":{"FID":60,"Id":0,"X":399817.35904399998,"Y":9211922.1576499995,"Name":"F4","Nama_2":"2K-F4","BUFF_DIST":100,"ORIG_FID":61,"Shape_Leng":628.31853071800003,"Shape_Area":31415.926535899998,"Field":0}},{"type":"Feature","id":61,"geometry":{"type":"Polygon","coordinates":[[[110.09365759475745,-7.1296348511157852],[110.09546862886087,-7.1296383994432579],[110.0954721772523,-7.1278294434429252],[110.09366115025102,-7.1278258960247358],[110.09365759475745,-7.1296348511157852]]]},"properties":{"FID":61,"Id":0,"X":400017.35904399998,"Y":9211922.1576499995,"Name":"F5","Nama_2":"2K-F5","BUFF_DIST":100,"ORIG_FID":62,"Shape_Leng":628.31853071800003,"Shape_Area":31415.926535899998,"Field":0}},{"type":"Feature","id":62,"geometry":{"type":"Polygon","coordinates":[[[110.09546862886087,-7.1296383994432579],[110.09727966388795,-7.1296419406757732],[110.09728320517722,-7.127832983767977],[110.0954721772523,-7.1278294434429252],[110.09546862886087,-7.1296383994432579]]]},"properties":{"FID":62,"Id":0,"X":400217.35904399998,"Y":9211922.1576499995,"Name":"F6","Nama_2":"2K-F6","BUFF_DIST":100,"ORIG_FID":63,"Shape_Leng":628.31853071800003,"Shape_Area":31415.926535899998,"Field":0}},{"type":"Feature","id":63,"geometry":{"type":"Polygon","coordinates":[[[110.09727966388795,-7.1296419406757732],[110.09909069983678,-7.129645474813314],[110.09909423402385,-7.1278365169998725],[110.09728320517722,-7.127832983767977],[110.09727966388795,-7.1296419406757732]]]},"properties":{"FID":63,"Id":0,"X":400417.35904399998,"Y":9211922.1576499995,"Name":"F7","Nama_2":"2K-F7","BUFF_DIST":100,"ORIG_FID":64,"Shape_Leng":628.31853071800003,"Shape_Area":31415.926535899998,"Field":0}},{"type":"Feature","id":64,"geometry":{"type":"Polygon","coordinates":[[[110.09909069983678,-7.129645474813314],[110.10090173670551,-7.1296490018558627],[110.10090526379039,-7.1278400431385949],[110.09909423402385,-7.1278365169998725],[110.09909069983678,-7.129645474813314]]]},"properties":{"FID":64,"Id":0,"X":400617.35904399998,"Y":9211922.1576499995,"Name":"F8","Nama_2":"2K-F8","BUFF_DIST":100,"ORIG_FID":65,"Shape_Leng":628.31853071800003,"Shape_Area":31415.926535899998,"Field":0}},{"type":"Feature","id":65,"geometry":{"type":"Polygon","coordinates":[[[110.10090173670551,-7.1296490018558627],[110.10271277449235,-7.1296525218034033],[110.102716294475,-7.1278435621841245],[110.10090526379039,-7.1278400431385949],[110.10090173670551,-7.1296490018558627]]]},"properties":{"FID":65,"Id":0,"X":400817.35904399998,"Y":9211922.1576499995,"Name":"F9","Nama_2":"2K-F9","BUFF_DIST":100,"ORIG_FID":66,"Shape_Leng":628.31853071800003,"Shape_Area":31415.926535899998,"Field":0}},{"type":"Feature","id":66,"geometry":{"type":"Polygon","coordinates":[[[110.10271277449235,-7.1296525218034033],[110.10452381319541,-7.1296560346559161],[110.10452732607583,-7.1278470741364464],[110.102716294475,-7.1278435621841245],[110.10271277449235,-7.1296525218034033]]]},"properties":{"FID":66,"Id":0,"X":401017.35904399998,"Y":9211922.1576499995,"Name":"F10","Nama_2":"2K-F10","BUFF_DIST":100,"ORIG_FID":67,"Shape_Leng":628.31853071800003,"Shape_Area":31415.926535899998,"Field":0}},{"type":"Feature","id":67,"geometry":{"type":"Polygon","coordinates":[[[110.10814589334278,-7.1296630390757914],[110.1099569347834,-7.1296665306431191],[110.10996042635701,-7.1278575674339848],[110.10814939201867,-7.1278540767613938],[110.10814589334278,-7.1296630390757914]]]},"properties":{"FID":67,"Id":0,"X":401617.35904399998,"Y":9211922.1576499995,"Name":"F13","Nama_2":"2K-F13","BUFF_DIST":100,"ORIG_FID":68,"Shape_Leng":628.31853071800003,"Shape_Area":31415.926535899998,"Field":0}},{"type":"Feature","id":68,"geometry":{"type":"Polygon","coordinates":[[[110.1099569347834,-7.1296665306431191],[110.11176797713287,-7.1296700151153507],[110.11177146160415,-7.1278610510132978],[110.10996042635701,-7.1278575674339848],[110.1099569347834,-7.1296665306431191]]]},"properties":{"FID":68,"Id":0,"X":401817.35904399998,"Y":9211922.1576499995,"Name":"F14","Nama_2":"2K-F14","BUFF_DIST":100,"ORIG_FID":69,"Shape_Leng":628.31853071800003,"Shape_Area":31415.926535899998,"Field":0}},{"type":"Feature","id":69,"geometry":{"type":"Polygon","coordinates":[[[110.11176797713287,-7.1296700151153507],[110.11357902038932,-7.1296734924924676],[110.11358249775829,-7.1278645274993151],[110.11177146160415,-7.1278610510132978],[110.11176797713287,-7.1296700151153507]]]},"properties":{"FID":69,"Id":0,"X":402017.35904399998,"Y":9211922.1576499995,"Name":"F15","Nama_2":"2K-F15","BUFF_DIST":100,"ORIG_FID":70,"Shape_Leng":628.31853071800003,"Shape_Area":31415.926535899998,"Field":0}},{"type":"Feature","id":70,"geometry":{"type":"Polygon","coordinates":[[[110.11357902038932,-7.1296734924924676],[110.11539006455089,-7.1296769627744547],[110.11539353481753,-7.1278679968920198],[110.11358249775829,-7.1278645274993151],[110.11357902038932,-7.1296734924924676]]]},"properties":{"FID":70,"Id":0,"X":402217.35904399998,"Y":9211922.1576499995,"Name":"F16","Nama_2":"2K-F16","BUFF_DIST":100,"ORIG_FID":71,"Shape_Leng":628.31853071800003,"Shape_Area":31415.926535899998,"Field":0}},{"type":"Feature","id":71,"geometry":{"type":"Polygon","coordinates":[[[110.09728320517722,-7.127832983767977],[110.09909423402385,-7.1278365169998725],[110.09909776729103,-7.1260275590434334],[110.09728674554471,-7.1260240267171762],[110.09728320517722,-7.127832983767977]]]},"properties":{"FID":71,"Id":0,"X":400417.35904399998,"Y":9212122.1576499995,"Name":"G7","Nama_2":"2K-G7","BUFF_DIST":100,"ORIG_FID":72,"Shape_Leng":628.31853071800003,"Shape_Area":31415.926535899998,"Field":0}},{"type":"Feature","id":72,"geometry":{"type":"Polygon","coordinates":[[[110.09909423402385,-7.1278365169998725],[110.10090526379039,-7.1278400431385949],[110.10090878995722,-7.1260310842783339],[110.09909776729103,-7.1260275590434334],[110.09909423402385,-7.1278365169998725]]]},"properties":{"FID":72,"Id":0,"X":400617.35904399998,"Y":9212122.1576499995,"Name":"G8","Nama_2":"2K-G8","BUFF_DIST":100,"ORIG_FID":73,"Shape_Leng":628.31853071800003,"Shape_Area":31415.926535899998,"Field":0}},{"type":"Feature","id":73,"geometry":{"type":"Polygon","coordinates":[[[110.10090526379039,-7.1278400431385949],[110.102716294475,-7.1278435621841245],[110.10271981354144,-7.1260346024218615],[110.10090878995722,-7.1260310842783339],[110.10090526379039,-7.1278400431385949]]]},"properties":{"FID":73,"Id":0,"X":400817.35904399998,"Y":9212122.1576499995,"Name":"G9","Nama_2":"2K-G9","BUFF_DIST":100,"ORIG_FID":74,"Shape_Leng":628.31853071800003,"Shape_Area":31415.926535899998,"Field":0}},{"type":"Feature","id":74,"geometry":{"type":"Polygon","coordinates":[[[110.102716294475,-7.1278435621841245],[110.10452732607583,-7.1278470741364464],[110.1045308380419,-7.1260381134739985],[110.10271981354144,-7.1260346024218615],[110.102716294475,-7.1278435621841245]]]},"properties":{"FID":74,"Id":0,"X":401017.35904399998,"Y":9212122.1576499995,"Name":"G10","Nama_2":"2K-G10","BUFF_DIST":100,"ORIG_FID":75,"Shape_Leng":628.31853071800003,"Shape_Area":31415.926535899998,"Field":0}},{"type":"Feature","id":75,"geometry":{"type":"Polygon","coordinates":[[[110.10814939201867,-7.1278540767613938],[110.10996042635701,-7.1278575674339848],[110.1099639170218,-7.1260486040818929],[110.1081528897839,-7.1260451143040315],[110.10814939201867,-7.1278540767613938]]]},"properties":{"FID":75,"Id":0,"X":401617.35904399998,"Y":9212122.1576499995,"Name":"G13","Nama_2":"2K-G13","BUFF_DIST":100,"ORIG_FID":76,"Shape_Leng":628.31853071800003,"Shape_Area":31415.926535899998,"Field":0}},{"type":"Feature","id":76,"geometry":{"type":"Polygon","coordinates":[[[110.10996042635701,-7.1278575674339848],[110.11177146160415,-7.1278610510132978],[110.11177494516851,-7.1260520867682926],[110.1099639170218,-7.1260486040818929],[110.10996042635701,-7.1278575674339848]]]},"properties":{"FID":76,"Id":0,"X":401817.35904399998,"Y":9212122.1576499995,"Name":"G14","Nama_2":"2K-G14","BUFF_DIST":100,"ORIG_FID":77,"Shape_Leng":628.31853071800003,"Shape_Area":31415.926535899998,"Field":0}},{"type":"Feature","id":77,"geometry":{"type":"Polygon","coordinates":[[[110.11177146160415,-7.1278610510132978],[110.11358249775829,-7.1278645274993151],[110.11358597422215,-7.1260555623632165],[110.11177494516851,-7.1260520867682926],[110.11177146160415,-7.1278610510132978]]]},"properties":{"FID":77,"Id":0,"X":402017.35904399998,"Y":9212122.1576499995,"Name":"G15","Nama_2":"2K-G15","BUFF_DIST":100,"ORIG_FID":78,"Shape_Leng":628.31853071800003,"Shape_Area":31415.926535899998,"Field":0}},{"type":"Feature","id":78,"geometry":{"type":"Polygon","coordinates":[[[110.11358249775829,-7.1278645274993151],[110.11539353481753,-7.1278679968920198],[110.11539700418089,-7.1260590308666449],[110.11358597422215,-7.1260555623632165],[110.11358249775829,-7.1278645274993151]]]},"properties":{"FID":78,"Id":0,"X":402217.35904399998,"Y":9212122.1576499995,"Name":"G16","Nama_2":"2K-G16","BUFF_DIST":100,"ORIG_FID":79,"Shape_Leng":628.31853071800003,"Shape_Area":31415.926535899998,"Field":0}},{"type":"Feature","id":79,"geometry":{"type":"Polygon","coordinates":[[[110.10090878995722,-7.1260310842783339],[110.10271981354144,-7.1260346024218615],[110.10272333169171,-7.1242256425166657],[110.100912315206,-7.124222125275133],[110.10090878995722,-7.1260310842783339]]]},"properties":{"FID":79,"Id":0,"X":400817.35904399998,"Y":9212322.1576499995,"Name":"H9","Nama_2":"2K-H9","BUFF_DIST":100,"ORIG_FID":80,"Shape_Leng":628.31853071800003,"Shape_Area":31415.926535899998,"Field":0}},{"type":"Feature","id":80,"geometry":{"type":"Polygon","coordinates":[[[110.10271981354144,-7.1260346024218615],[110.1045308380419,-7.1260381134739985],[110.10453434909361,-7.124229152668625],[110.10272333169171,-7.1242256425166657],[110.10271981354144,-7.1260346024218615]]]},"properties":{"FID":80,"Id":0,"X":401017.35904399998,"Y":9212322.1576499995,"Name":"H10","Nama_2":"2K-H10","BUFF_DIST":100,"ORIG_FID":81,"Shape_Leng":628.31853071800003,"Shape_Area":31415.926535899998,"Field":0}},{"type":"Feature","id":81,"geometry":{"type":"Polygon","coordinates":[[[110.1045308380419,-7.1260381134739985],[110.10634186345665,-7.1260416174347281],[110.10634536740982,-7.1242326557309941],[110.10453434909361,-7.124229152668625],[110.1045308380419,-7.1260381134739985]]]},"properties":{"FID":81,"Id":0,"X":401217.35904399998,"Y":9212322.1576499995,"Name":"H11","Nama_2":"2K-H11","BUFF_DIST":100,"ORIG_FID":82,"Shape_Leng":628.31853071800003,"Shape_Area":31415.926535899998,"Field":0}},{"type":"Feature","id":82,"geometry":{"type":"Polygon","coordinates":[[[110.10634186345665,-7.1260416174347281],[110.1081528897839,-7.1260451143040315],[110.10815638663848,-7.1242361517037569],[110.10634536740982,-7.1242326557309941],[110.10634186345665,-7.1260416174347281]]]},"properties":{"FID":82,"Id":0,"X":401417.35904399998,"Y":9212322.1576499995,"Name":"H12","Nama_2":"2K-H12","BUFF_DIST":100,"ORIG_FID":83,"Shape_Leng":628.31853071800003,"Shape_Area":31415.926535899998,"Field":0}},{"type":"Feature","id":83,"geometry":{"type":"Polygon","coordinates":[[[110.1081528897839,-7.1260451143040315],[110.1099639170218,-7.1260486040818929],[110.1099674067778,-7.124239640586894],[110.10815638663848,-7.1242361517037569],[110.1081528897839,-7.1260451143040315]]]},"properties":{"FID":83,"Id":0,"X":401617.35904399998,"Y":9212322.1576499995,"Name":"H13","Nama_2":"2K-H13","BUFF_DIST":100,"ORIG_FID":84,"Shape_Leng":628.31853071800003,"Shape_Area":31415.926535899998,"Field":0}},{"type":"Feature","id":84,"geometry":{"type":"Polygon","coordinates":[[[110.1099639170218,-7.1260486040818929],[110.11177494516851,-7.1260520867682926],[110.11177842782588,-7.1242431223803893],[110.1099674067778,-7.124239640586894],[110.1099639170218,-7.1260486040818929]]]},"properties":{"FID":84,"Id":0,"X":401817.35904399998,"Y":9212322.1576499995,"Name":"H14","Nama_2":"2K-H14","BUFF_DIST":100,"ORIG_FID":85,"Shape_Leng":628.31853071800003,"Shape_Area":31415.926535899998,"Field":0}},{"type":"Feature","id":85,"geometry":{"type":"Polygon","coordinates":[[[110.100912315206,-7.124222125275133],[110.10272333169171,-7.1242256425166657],[110.1027268489258,-7.122416682468554],[110.10091583953675,-7.1224131661290109],[110.100912315206,-7.124222125275133]]]},"properties":{"FID":85,"Id":0,"X":400817.35904399998,"Y":9212522.1576499995,"Name":"I9","Nama_2":"2K-I9","BUFF_DIST":100,"ORIG_FID":86,"Shape_Leng":628.31853071800003,"Shape_Area":31415.926535899998,"Field":0}},{"type":"Feature","id":86,"geometry":{"type":"Polygon","coordinates":[[[110.10453434909361,-7.124229152668625],[110.10634536740982,-7.1242326557309941],[110.1063488704505,-7.1224236938843593],[110.104537859231,-7.1224201917203418],[110.10453434909361,-7.124229152668625]]]},"properties":{"FID":86,"Id":0,"X":401217.35904399998,"Y":9212522.1576499995,"Name":"I11","Nama_2":"2K-I11","BUFF_DIST":100,"ORIG_FID":87,"Shape_Leng":628.31853071800003,"Shape_Area":31415.926535899998,"Field":0}},{"type":"Feature","id":87,"geometry":{"type":"Polygon","coordinates":[[[110.10634536740982,-7.1242326557309941],[110.10815638663848,-7.1242361517037569],[110.10815988258246,-7.1224271889605868],[110.1063488704505,-7.1224236938843593],[110.10634536740982,-7.1242326557309941]]]},"properties":{"FID":87,"Id":0,"X":401417.35904399998,"Y":9212522.1576499995,"Name":"I12","Nama_2":"2K-I12","BUFF_DIST":100,"ORIG_FID":88,"Shape_Leng":628.31853071800003,"Shape_Area":31415.926535899998,"Field":0}},{"type":"Feature","id":88,"geometry":{"type":"Polygon","coordinates":[[[110.10815638663848,-7.1242361517037569],[110.1099674067778,-7.124239640586894],[110.10997089562501,-7.1224306769490076],[110.10815988258246,-7.1224271889605868],[110.10815638663848,-7.1242361517037569]]]},"properties":{"FID":88,"Id":0,"X":401617.35904399998,"Y":9212522.1576499995,"Name":"I13","Nama_2":"2K-I13","BUFF_DIST":100,"ORIG_FID":89,"Shape_Leng":628.31853071800003,"Shape_Area":31415.926535899998,"Field":0}},{"type":"Feature","id":89,"geometry":{"type":"Polygon","coordinates":[[[110.1099674067778,-7.124239640586894],[110.11177842782588,-7.1242431223803893],[110.11178190957634,-7.1224341578496047],[110.10997089562501,-7.1224306769490076],[110.1099674067778,-7.124239640586894]]]},"properties":{"FID":89,"Id":0,"X":401817.35904399998,"Y":9212522.1576499995,"Name":"I14","Nama_2":"2K-I14","BUFF_DIST":100,"ORIG_FID":90,"Shape_Leng":628.31853071800003,"Shape_Area":31415.926535899998,"Field":0}},{"type":"Feature","id":90,"geometry":{"type":"Polygon","coordinates":[[[110.10815988258246,-7.1224271889605868],[110.10997089562501,-7.1224306769490076],[110.10997438356347,-7.1206217131683029],[110.1081633776158,-7.1206182260745923],[110.10815988258246,-7.1224271889605868]]]},"properties":{"FID":90,"Id":0,"X":401617.35904399998,"Y":9212722.1576499995,"Name":"J13","Nama_2":"2K-J13","BUFF_DIST":100,"ORIG_FID":91,"Shape_Leng":628.31853071800003,"Shape_Area":31415.926535899998,"Field":0}},{"type":"Feature","id":91,"geometry":{"type":"Polygon","coordinates":[[[110.10997089562501,-7.1224306769490076],[110.11178190957634,-7.1224341578496047],[110.11178539041988,-7.1206251931760081],[110.10997438356347,-7.1206217131683029],[110.10997089562501,-7.1224306769490076]]]},"properties":{"FID":91,"Id":0,"X":401817.35904399998,"Y":9212722.1576499995,"Name":"J14","Nama_2":"2K-J14","BUFF_DIST":100,"ORIG_FID":92,"Shape_Leng":628.31853071800003,"Shape_Area":31415.926535899998,"Field":0}}]}