{
"type": "FeatureCollection",
"name": "kemuning",
"crs": { "type": "name", "properties": { "name": "urn:ogc:def:crs:EPSG::32749" } },
"features": [
{ "type": "Feature", "properties": { "Id": 0 }, "geometry": { "type": "MultiPolygon", "coordinates": [ [ [ [ 401876.204909556545317, 9212746.94180647842586 ], [ 401896.048699243925512, 9212717.837581606581807 ], [ 401933.09043999761343, 9212720.483420234173536 ], [ 401942.193144361488521, 9212677.61835864558816 ], [ 401918.90976445749402, 9212642.693288788199425 ], [ 401866.944474360905588, 9212630.524906974285841 ], [ 401836.517330191098154, 9212580.253973102197051 ], [ 401848.423603997565806, 9212548.503909599035978 ], [ 401882.819506109692156, 9212541.889313042163849 ], [ 401903.986215132288635, 9212494.264217786490917 ], [ 401922.940258617512882, 9212474.012256989255548 ], [ 401912.621487987227738, 9212447.8184546045959 ], [ 401863.408889563754201, 9212425.593410151079297 ], [ 401838.008838765323162, 9212409.718378402292728 ], [ 401798.321259379386902, 9212382.730824422091246 ], [ 401795.146253043785691, 9212356.537022041156888 ], [ 401807.052526842802763, 9212338.280735524371266 ], [ 401854.677622098475695, 9212327.961964894086123 ], [ 401914.208991160616279, 9212320.818200604990125 ], [ 401960.871745559386909, 9212310.378433341160417 ], [ 401977.306097775697708, 9212331.548402490094304 ], [ 402004.52808288577944, 9212315.670110588893294 ], [ 402036.27814637683332, 9212269.36793464422226 ], [ 402068.028209883719683, 9212224.388678029179573 ], [ 402131.528336867690086, 9212193.961533835157752 ], [ 402187.090947998687625, 9212188.669856578111649 ], [ 402220.163930813781917, 9212209.836565593257546 ], [ 402254.559832940809429, 9212225.711597338318825 ], [ 402278.372380564920604, 9212192.6386145260185 ], [ 402263.820268142037094, 9212133.107245463877916 ], [ 402258.528590874746442, 9212088.127988833934069 ], [ 402257.276098749600351, 9212049.216409992426634 ], [ 402298.543509835377336, 9212021.573852121829987 ], [ 402303.835187084972858, 9211988.500869315117598 ], [ 402278.699720144271851, 9211950.136209247633815 ], [ 402269.439284954220057, 9211911.771549185737967 ], [ 402276.053881515748799, 9211876.052727749571204 ], [ 402262.824688395485282, 9211837.423483829945326 ], [ 402270.762204267084599, 9211800.381743084639311 ], [ 402264.147607703693211, 9211777.892114769667387 ], [ 402246.949656643904746, 9211756.725405778735876 ], [ 402231.074624879285693, 9211726.298261594027281 ], [ 402228.428786267526448, 9211705.131552584469318 ], [ 402224.460028333589435, 9211649.568941455334425 ], [ 402203.29331932682544, 9211625.75639384239912 ], [ 402192.709964815527201, 9211580.777137208729982 ], [ 402215.199593141674995, 9211550.349993020296097 ], [ 402233.72046351339668, 9211538.443719210103154 ], [ 402326.642316029407084, 9211524.156190633773804 ], [ 402398.609126609750092, 9211545.322899647057056 ], [ 402449.409228230826557, 9211606.706355728209019 ], [ 402485.392633527517319, 9211655.389786437153816 ], [ 402517.142697027884424, 9211691.373191732913256 ], [ 402541.10415602196008, 9211719.721418678760529 ], [ 402595.459520318545401, 9211748.523306034505367 ], [ 402680.126356334425509, 9211756.989989643916488 ], [ 402718.226432519964874, 9211742.173293344676495 ], [ 402758.443179631605744, 9211712.539900733157992 ], [ 402766.909863215871155, 9211663.856470044702291 ], [ 402732.662872472777963, 9211611.242035048082471 ], [ 402784.521309518255293, 9211556.208591649308801 ], [ 402838.49641748610884, 9211554.091920744627714 ], [ 402907.334376499056816, 9211563.798334781080484 ], [ 402998.685326780192554, 9211568.606279542669654 ], [ 403015.238437630236149, 9211591.1336615011096 ], [ 403025.143713031895459, 9211627.873064739629626 ], [ 403070.919050517491996, 9211633.329004846513271 ], [ 403110.488628142513335, 9211578.433636104688048 ], [ 403126.363659884780645, 9211598.542009649798274 ], [ 403139.063685277476907, 9211622.883725000545382 ], [ 403127.706891119480133, 9211650.146939611062407 ], [ 403158.113723400048912, 9211656.750459395349026 ], [ 403202.732401525601745, 9211649.039773736149073 ], [ 403191.090016070753336, 9211584.737338490784168 ], [ 403162.34706518612802, 9211544.566901696845889 ], [ 403201.50547685008496, 9211536.10021809861064 ], [ 403232.197204885073006, 9211543.508566241711378 ], [ 403261.830597491934896, 9211441.908363049849868 ], [ 403285.282566636800766, 9211307.197423378005624 ], [ 403318.980711777694523, 9211178.382835984230042 ], [ 403316.864040893502533, 9211142.399430681020021 ], [ 403248.072236651554704, 9211137.107753435149789 ], [ 403217.380508576519787, 9211223.891260348260403 ], [ 403178.22209694609046, 9211203.782886786386371 ], [ 403160.230394292622805, 9211185.791184138506651 ], [ 403130.765590931288898, 9211177.022163035348058 ], [ 403103.248869236558676, 9211174.905492132529616 ], [ 403086.146912783384323, 9211162.507804233580828 ], [ 403070.271881041117013, 9211151.924449749290943 ], [ 403013.121766726486385, 9211166.741146044805646 ], [ 402986.663380482234061, 9211166.741146044805646 ], [ 402955.971652423031628, 9211169.916152391582727 ], [ 402895.815121049061418, 9211148.658772980794311 ], [ 402838.665006733499467, 9211123.258722180500627 ], [ 402809.031614129431546, 9211102.092013185843825 ], [ 402779.398221539333463, 9211074.575291488319635 ], [ 402758.062923274002969, 9211068.315949190407991 ], [ 402725.25452433526516, 9211058.790930135175586 ], [ 402690.329454476945102, 9211056.674259236082435 ], [ 402669.162745472043753, 9211085.24931638687849 ], [ 402620.479314771480858, 9211093.71599998883903 ], [ 402578.314486048184335, 9211072.458620587363839 ], [ 402567.466547671705484, 9211039.914805494248867 ], [ 402590.749927582219243, 9210980.118852574378252 ], [ 402578.314486037008464, 9210959.74589516222477 ], [ 402536.077062620781362, 9210944.755285393446684 ], [ 402494.801980088464916, 9210952.692801274359226 ], [ 402479.720699921250343, 9210966.980329854413867 ], [ 402472.480941040441394, 9210998.375139081850648 ], [ 402442.847548433579504, 9211030.125202583149076 ], [ 402413.214155837893486, 9211066.10860788449645 ], [ 402374.126617607660592, 9211074.510236466303468 ], [ 402370.976732428185642, 9211055.086756061762571 ], [ 402347.164184809662402, 9211044.767985425889492 ], [ 402340.020420519635081, 9211070.961787816137075 ], [ 402324.145388774573803, 9211075.724297340959311 ], [ 402301.126592732034624, 9211076.51804892718792 ], [ 402284.457809396088123, 9211094.774335438385606 ], [ 402281.980560031719506, 9211123.258722182363272 ], [ 402258.697180136106908, 9211144.425431190058589 ], [ 402213.188755784183741, 9211116.908709479495883 ], [ 402244.938819297589362, 9211040.708557080477476 ], [ 402266.105528295971453, 9210998.375139089301229 ], [ 402287.272237291559577, 9210945.458366580307484 ], [ 402268.222199186682701, 9210884.07491048425436 ], [ 402232.238793874159455, 9210856.558188781142235 ], [ 401949.416283803991973, 9210852.765820112079382 ], [ 401894.912008110433817, 9210921.822208220139146 ], [ 401821.886862073093653, 9210934.522233616560698 ], [ 401747.27421285584569, 9211010.986969884485006 ], [ 401695.165769857354462, 9211057.036330411210656 ], [ 401677.174067217856646, 9211132.178147351369262 ], [ 401668.707383611239493, 9211186.153255298733711 ], [ 401724.852079231292009, 9211279.445525228977203 ], [ 401684.646193092688918, 9211298.609743118286133 ], [ 401654.94902275223285, 9211343.845237353816628 ], [ 401620.881482234224677, 9211380.366156632080674 ], [ 401596.593703142367303, 9211420.377580316737294 ], [ 401555.583204468712211, 9211467.341215904802084 ], [ 401580.718671404756606, 9211491.021471602842212 ], [ 401586.396744818426669, 9211512.9487664103508 ], [ 401558.890502754598856, 9211522.771535100415349 ], [ 401552.304519984871149, 9211559.225029844790697 ], [ 401592.294215374626219, 9211578.201854301616549 ], [ 401538.715983215719461, 9211608.6289984844625 ], [ 401509.074184251949191, 9211672.534021735191345 ], [ 401467.939800009131432, 9211697.926052065566182 ], [ 401448.757469968870282, 9211749.519905261695385 ], [ 401413.303232407197356, 9211827.241414869204164 ], [ 401395.840697482228279, 9211901.854064092040062 ], [ 401422.434474905952811, 9211941.839340776205063 ], [ 401460.534551105462015, 9211994.226945551112294 ], [ 401490.697111423127353, 9212024.389505879953504 ], [ 401525.622181287966669, 9212052.964563025161624 ], [ 401584.35979875177145, 9212091.06463922932744 ], [ 401565.30976065993309, 9212143.452244000509381 ], [ 401571.659773360937834, 9212206.952370997518301 ], [ 401558.959747957065701, 9212248.227453552186489 ], [ 401492.284614612348378, 9212241.877440853044391 ], [ 401414.496959031559527, 9212230.764918627217412 ], [ 401401.796933630481362, 9212200.602358303964138 ], [ 401371.634373287670314, 9212143.452243998646736 ], [ 401309.721749470569193, 9212137.102231299504638 ], [ 401238.28410660661757, 9212121.227199563756585 ], [ 401177.958985945209861, 9212108.527174156159163 ], [ 401108.108846252784133, 9212079.952116999775171 ], [ 401050.121174026280642, 9212065.223845805972815 ], [ 401026.308626398444176, 9212028.843564718961716 ], [ 401023.662787781096995, 9211993.786202929913998 ], [ 401050.958731946535408, 9211959.301875710487366 ], [ 401053.288762502372265, 9211899.155973622575402 ], [ 401053.225532404147089, 9211899.161995533853769 ], [ 401034.842817372642457, 9211878.249355876818299 ], [ 401011.030269760638475, 9211857.611814588308334 ], [ 400985.630218954756856, 9211848.086795553565025 ], [ 400955.467658621259034, 9211836.974273322150111 ], [ 400939.592626867815852, 9211825.861751087009907 ], [ 400911.017569710500538, 9211811.574222518131137 ], [ 400880.855009394697845, 9211805.224209817126393 ], [ 400863.392474467866123, 9211787.761674894019961 ], [ 400847.517442725598812, 9211759.186617748811841 ], [ 400833.229914154857397, 9211722.674044720828533 ], [ 400825.292398267425597, 9211675.048949465155602 ], [ 400841.167430024594069, 9211641.711382791399956 ], [ 400877.680003046058118, 9211616.311331989243627 ], [ 400906.255060192197561, 9211598.848797060549259 ], [ 400950.705149093642831, 9211594.086287537589669 ], [ 401006.267760226503015, 9211617.898835172876716 ], [ 401033.25531420391053, 9211619.486338341608644 ], [ 401061.830371338874102, 9211657.586414538323879 ], [ 401084.055415797047317, 9211676.63645263761282 ], [ 401099.930447550490499, 9211717.911535186693072 ], [ 401093.580434852279723, 9211751.249101862311363 ], [ 401103.10545389354229, 9211787.761674890294671 ], [ 401107.867963438853621, 9211835.386770144104958 ], [ 401134.855517406947911, 9211821.099241567775607 ], [ 401168.19308406766504, 9211790.936681244522333 ], [ 401185.655618996359408, 9211770.299139963462949 ], [ 401201.53065076097846, 9211743.311585992574692 ], [ 401211.055669811554253, 9211705.211509784683585 ], [ 401217.405682505108416, 9211665.523930419236422 ], [ 401231.693211075849831, 9211630.598860565572977 ], [ 401239.630726959556341, 9211606.786312947049737 ], [ 401241.218230118043721, 9211581.703762765973806 ], [ 401250.74324918165803, 9211569.003737377002835 ], [ 401265.03077775426209, 9211556.303711980581284 ], [ 401266.618280941620469, 9211535.666170692071319 ], [ 401258.680765051394701, 9211518.203635761514306 ], [ 401249.155746010132134, 9211503.916107190772891 ], [ 401257.093261884525418, 9211486.453572271391749 ], [ 401269.793287286534905, 9211465.816030997782946 ], [ 401282.493312679231167, 9211443.590986547991633 ], [ 401303.130853950977325, 9211432.478464329615235 ], [ 401303.130853946320713, 9211397.553394475951791 ], [ 401292.01833173353225, 9211384.853369075804949 ], [ 401276.143299986608326, 9211354.690808739513159 ], [ 401234.868217428214848, 9211330.878261107951403 ], [ 401207.880663450807333, 9211351.515802400186658 ], [ 401176.130599956959486, 9211345.165789693593979 ], [ 401117.392982477322221, 9211335.640770642086864 ], [ 401087.230422155931592, 9211354.690808739513159 ], [ 401053.89285547286272, 9211349.928299210965633 ], [ 401052.305352297611535, 9211316.590732550248504 ], [ 401021.825291345827281, 9211261.028121422976255 ], [ 400980.550208804197609, 9211229.278057927265763 ], [ 400924.987597669474781, 9211191.177981708198786 ], [ 400874.187496068887413, 9211170.540440449491143 ], [ 400815.449878602288663, 9211149.902899159118533 ], [ 400766.237280177883804, 9211124.502848360687494 ], [ 400721.787191271781921, 9211092.752784861251712 ], [ 400693.212134113535285, 9211099.102797567844391 ], [ 400651.937051550485194, 9211127.677854707464576 ], [ 400621.774491237476468, 9211119.740338835865259 ], [ 400596.374440439976752, 9211121.327842006459832 ], [ 400561.449370581656694, 9211121.327842019498348 ], [ 400521.761791222728789, 9211094.34028802998364 ], [ 400470.961689620278776, 9211111.802822960540652 ], [ 400407.144061988219619, 9211116.565332492813468 ], [ 400376.9815016631037, 9211100.690300738438964 ], [ 400337.29392228461802, 9211119.740338835865259 ], [ 400297.606342916376889, 9211129.265357894822955 ], [ 400254.743757175281644, 9211130.852861067280173 ], [ 400229.343706387095153, 9211126.090351542457938 ], [ 400191.243630177341402, 9211135.615370584651828 ], [ 400169.018585735931993, 9211143.552886463701725 ], [ 400132.506012708880007, 9211130.852861072868109 ], [ 400095.993439680896699, 9211143.552886463701725 ], [ 400057.893363475799561, 9211148.315395986661315 ], [ 400015.030777751468122, 9211146.727892821654677 ], [ 399976.930701557546854, 9211157.84041503444314 ], [ 399945.18063803948462, 9211156.252911860123277 ], [ 399910.255568210035563, 9211181.652962673455477 ], [ 399883.268014235422015, 9211188.002975368872285 ], [ 399845.167938022874296, 9211188.002975363284349 ], [ 399803.892855477519333, 9211191.177981719374657 ], [ 399770.555288794450462, 9211191.177981710061431 ], [ 399693.40263450331986, 9211188.00297536700964 ], [ 399648.423377873376012, 9211164.190427744761109 ], [ 399595.506605382077396, 9211172.127943614497781 ], [ 399550.527348749339581, 9211195.940491240471601 ], [ 399516.131446630693972, 9211177.419620860368013 ], [ 399468.506351381540298, 9211148.315395990386605 ], [ 399407.652062993496656, 9211129.794525610283017 ], [ 399377.883475534617901, 9211126.29233886115253 ], [ 399337.790954181924462, 9211157.515651335939765 ], [ 399311.043579728342593, 9211203.363333135843277 ], [ 399301.783144541084766, 9211233.790477318689227 ], [ 399295.457536181434989, 9211260.703357715159655 ], [ 399250.870174926705658, 9211259.548319440335035 ], [ 399181.020035219378769, 9211293.415053846314549 ], [ 399187.3700479157269, 9211318.815104646608233 ], [ 399172.553351623006165, 9211350.565168138593435 ], [ 399174.670022513717413, 9211382.315231654793024 ], [ 399178.903364330530167, 9211407.715282443910837 ], [ 399185.253377029672265, 9211452.165371339768171 ], [ 399185.25337702780962, 9211479.682093044742942 ], [ 399178.903364326804876, 9211519.898840138688684 ], [ 399191.603389730677009, 9211555.882245445623994 ], [ 399223.353453217074275, 9211585.51563804782927 ], [ 399225.470124117098749, 9211608.799017960205674 ], [ 399189.486718824133277, 9211640.549081452190876 ], [ 399212.770098719745874, 9211668.065803144127131 ], [ 399236.053478634916246, 9211689.232512144371867 ], [ 399257.050853965803981, 9211729.142341973260045 ], [ 399233.76747405808419, 9211752.425721880048513 ], [ 399195.667397847399116, 9211779.942443558946252 ], [ 399208.36742325220257, 9211796.875810764729977 ], [ 399229.534132241271436, 9211824.392532469704747 ], [ 399212.60076505318284, 9211839.209228778257966 ], [ 399174.500688861124218, 9211879.425975872203708 ], [ 399185.084043340757489, 9211906.942697567865252 ], [ 399206.250752350315452, 9211940.809431979432702 ], [ 399221.06744865141809, 9211957.74279916472733 ], [ 399242.014648133888841, 9212028.846465000882745 ], [ 399247.190573845990002, 9212061.583864089101553 ], [ 399306.511726968921721, 9212024.74106833152473 ], [ 399347.639227882958949, 9212014.316464154049754 ], [ 399428.165935798548162, 9211983.796208515763283 ], [ 399494.020249808207154, 9211942.878821268677711 ], [ 399582.765407098457217, 9212048.469928178936243 ], [ 399647.478890062309802, 9212106.920816021040082 ], [ 399721.854023171588778, 9212050.471341870725155 ], [ 399800.937530313618481, 9211977.274723405018449 ], [ 399813.735375150106847, 9212076.475585673004389 ], [ 399855.010457698255777, 9212046.313025342300534 ], [ 399861.791818672791123, 9212146.608395406976342 ], [ 399906.771075307391584, 9212112.21249326877296 ], [ 400012.604620312340558, 9212030.191495891660452 ], [ 400139.6048743147403, 9212059.295720770955086 ], [ 400265.908127033151686, 9212092.180379714816809 ], [ 400286.254527196288109, 9212175.717058265581727 ], [ 400305.000000011175871, 9212215.0 ], [ 400277.640903188847005, 9212333.934927264228463 ], [ 400284.827478074468672, 9212366.291948314756155 ], [ 400237.953323792666197, 9212378.385016171261668 ], [ 400231.782626965083182, 9212417.357770159840584 ], [ 400206.511726980097592, 9212443.302370162680745 ], [ 400197.911143494769931, 9212489.755578894168139 ], [ 400255.539541096426547, 9212450.715044463053346 ], [ 400236.011219704523683, 9212467.530534446239471 ], [ 400274.111295914277434, 9212442.130483644083142 ], [ 400299.511346706189215, 9212421.492942370474339 ], [ 400358.248964172787964, 9212356.40531219728291 ], [ 400397.93654356058687, 9212302.430204240605235 ], [ 400429.686607067473233, 9212262.742624865844846 ], [ 400466.199180094525218, 9212226.230051839724183 ], [ 400509.061765807680786, 9212177.017453413456678 ], [ 400542.261015962809324, 9212137.114202367141843 ], [ 400546.664610060863197, 9212140.642172461375594 ], [ 400546.557749035768211, 9212140.77395686507225 ], [ 400563.605387169867754, 9212197.4515649843961 ], [ 400603.822134272195399, 9212240.843318436294794 ], [ 400629.22218507155776, 9212254.601679285988212 ], [ 400624.988843277096748, 9212273.651717385277152 ], [ 400639.805539565160871, 9212301.168439077213407 ], [ 400656.738906783051789, 9212340.326850727200508 ], [ 400709.800782917998731, 9212368.022561689838767 ], [ 400771.567283591255546, 9212373.878560347482562 ], [ 400765.562977598980069, 9212407.664171911776066 ], [ 400771.567283594980836, 9212461.191234966740012 ], [ 400770.244364278391004, 9212503.524652972817421 ], [ 400791.411073282361031, 9212540.566393718123436 ], [ 400852.265361659228802, 9212557.764344781637192 ], [ 400898.567537598311901, 9212564.378941357135773 ], [ 400923.703004531562328, 9212559.08726410381496 ], [ 400939.578036291524768, 9212537.920555103570223 ], [ 400958.098906666040421, 9212519.399684727191925 ], [ 400996.463566714897752, 9212511.462168840691447 ], [ 401034.564662426710129, 9212521.090545596554875 ], [ 401051.498029625043273, 9212538.023912793025374 ], [ 401085.364764029160142, 9212539.082248240709305 ], [ 401116.056492083705962, 9212548.60726728476584 ], [ 401159.448245525360107, 9212568.715640839189291 ], [ 401215.751691466197371, 9212583.532337134703994 ], [ 401269.726799421012402, 9212599.407368885353208 ], [ 401312.06021742336452, 9212627.982426039874554 ], [ 401343.81028091814369, 9212655.499147742986679 ], [ 401374.502008962444961, 9212656.557483186945319 ], [ 401406.568553612567484, 9212670.21248634904623 ], [ 401440.33047395106405, 9212693.705057477578521 ], [ 401467.847195656970143, 9212702.171741085126996 ], [ 401495.204147544689476, 9212712.545904353260994 ], [ 401548.120920047163963, 9212711.222985029220581 ], [ 401578.548064238391817, 9212727.098016787320375 ], [ 401593.789114200510085, 9212761.438526283949614 ], [ 401632.947525854222476, 9212804.830279728397727 ], [ 401672.317604600451887, 9212833.19366978853941 ], [ 401697.717655391432345, 9212864.943733286112547 ], [ 401717.454592058435082, 9212867.327463923022151 ], [ 401732.642725251615047, 9212880.818765046074986 ], [ 401769.684466000646353, 9212899.868803136050701 ], [ 401805.667871300131083, 9212927.385524839162827 ], [ 401825.933975686319172, 9212916.275478476658463 ], [ 401828.579814300872386, 9212907.01504329405725 ], [ 401848.423603997565806, 9212875.264979800209403 ], [ 401835.194410876370966, 9212855.421190101653337 ], [ 401827.256895001977682, 9212822.348207293078303 ], [ 401839.27002183906734, 9212777.895642524585128 ], [ 401876.204909556545317, 9212746.94180647842586 ] ] ] ] } }
]
}
