{"type":"FeatureCollection","name":"kemuning","crs":{"type":"name","properties":{"name":"urn:ogc:def:crs:OGC:1.3:CRS84"}},"features":[{"type":"Feature","properties":{"Id":0},"geometry":{"type":"MultiPolygon","coordinates":[[[[110.401876, -7.127469],[110.401896, -7.127718],[110.401933, -7.12772],[110.401942, -7.128178],[110.401919, -7.128427],[110.401867, -7.128631],[110.401837, -7.12908],[110.401848, -7.129549],[110.401883, -7.129542],[110.401904, -7.129943],[110.401923, -7.130274],[110.401913, -7.130448],[110.401863, -7.130426],[110.401838, -7.130409],[110.401798, -7.130827],[110.401795, -7.131357],[110.401807, -7.131338],[110.401855, -7.131328],[110.401914, -7.131321],[110.401961, -7.13131],[110.401977, -7.131332],[110.402005, -7.131316],[110.402036, -7.131269],[110.402068, -7.131224],[110.402132, -7.131194],[110.402187, -7.131189],[110.40222, -7.13121],[110.402255, -7.131226],[110.402278, -7.131193],[110.402264, -7.131331],[110.402259, -7.131881],[110.402257, -7.132049],[110.402299, -7.132022],[110.402304, -7.132989],[110.402279, -7.13295],[110.402269, -7.133912],[110.402276, -7.133876],[110.402263, -7.133837],[110.402271, -7.1338],[110.402264, -7.134778],[110.402247, -7.134757],[110.402231, -7.134726],[110.402228, -7.134705],[110.402224, -7.135649],[110.402203, -7.135626],[110.402193, -7.135581],[110.402215, -7.13555],[110.402234, -7.135538],[110.402327, -7.135524],[110.402399, -7.135545],[110.402449, -7.135607],[110.402485, -7.135655],[110.402517, -7.135691],[110.402541, -7.13572],[110.402595, -7.135749],[110.40268, -7.135757],[110.402718, -7.135742],[110.402758, -7.135713],[110.402767, -7.135664],[110.402733, -7.136611],[110.402785, -7.136556],[110.402838, -7.136554],[110.402907, -7.136564],[110.402999, -7.136569],[110.403015, -7.136591],[110.403025, -7.136628],[110.403071, -7.136633],[110.40311, -7.136578],[110.403126, -7.136599],[110.403139, -7.136623],[110.403128, -7.13665],[110.403158, -7.136657],[110.403203, -7.136649],[110.403191, -7.136585],[110.403162, -7.137545],[110.403202, -7.137536],[110.403232, -7.137544],[110.403262, -7.138442],[110.403285, -7.139307],[110.403319, -7.140178],[110.403317, -7.140142],[110.403248, -7.140137],[110.403217, -7.140224],[110.403178, -7.140204],[110.40316, -7.140186],[110.403131, -7.140177],[110.403103, -7.140175],[110.403086, -7.140163],[110.40307, -7.140152],[110.403013, -7.140167],[110.402987, -7.140167],[110.402956, -7.14017],[110.402896, -7.140149],[110.402839, -7.140123],[110.402809, -7.140102],[110.402779, -7.140075],[110.402758, -7.140068],[110.402725, -7.140059],[110.40269, -7.140057],[110.402669, -7.140085],[110.40262, -7.140094],[110.402578, -7.140072],[110.402567, -7.14004],[110.402591, -7.13998],[110.402578, -7.13996],[110.402536, -7.139945],[110.402495, -7.139953],[110.40248, -7.139967],[110.402472, -7.139998],[110.402443, -7.14003],[110.402413, -7.140066],[110.402374, -7.140075],[110.402371, -7.140055],[110.402347, -7.140045],[110.40234, -7.140071],[110.402324, -7.140076],[110.402301, -7.140077],[110.402284, -7.140095],[110.402282, -7.140123],[110.402259, -7.140144],[110.402213, -7.140117],[110.402245, -7.140041],[110.402266, -7.139998],[110.402287, -7.139945],[110.402268, -7.139884],[110.402232, -7.139857],[110.401949, -7.139853],[110.401895, -7.140092],[110.401822, -7.140093],[110.401747, -7.140101],[110.401695, -7.140106],[110.401677, -7.140132],[110.401669, -7.140186],[110.401725, -7.140279],[110.401685, -7.140299],[110.401655, -7.140344],[110.401621, -7.14038],[110.401597, -7.14042],[110.401556, -7.140467],[110.401581, -7.140491],[110.401586, -7.140513],[110.401559, -7.140523],[110.401552, -7.140559],[110.401592, -7.140578],[110.401539, -7.140609],[110.401509, -7.140673],[110.401468, -7.140698],[110.401449, -7.14075],[110.401413, -7.140827],[110.401396, -7.140902],[110.401422, -7.140942],[110.401461, -7.140994],[110.401491, -7.141024],[110.401526, -7.141053],[110.401584, -7.141091],[110.401565, -7.141143],[110.401572, -7.141207],[110.401559, -7.141248],[110.401492, -7.141242],[110.401414, -7.141231],[110.401402, -7.1412],[110.401372, -7.141143],[110.40131, -7.141137],[110.401238, -7.141121],[110.401178, -7.141109],[110.401108, -7.14108],[110.40105, -7.141065],[110.401026, -7.141029],[110.401024, -7.140994],[110.401051, -7.140959],[110.401053, -7.140899],[110.401053, -7.140899],[110.401035, -7.140878],[110.401011, -7.140858],[110.400986, -7.140848],[110.400955, -7.140837],[110.40094, -7.140826],[110.400911, -7.140812],[110.400881, -7.140805],[110.400863, -7.140788],[110.400848, -7.140759],[110.400833, -7.140723],[110.400825, -7.140675],[110.400841, -7.140642],[110.400878, -7.140616],[110.400906, -7.140599],[110.400951, -7.140594],[110.401006, -7.140618],[110.401033, -7.140619],[110.401062, -7.140658],[110.401084, -7.140677],[110.4011, -7.140718],[110.401094, -7.140751],[110.401103, -7.140788],[110.401108, -7.140835],[110.401135, -7.140821],[110.401168, -7.140791],[110.401186, -7.14077],[110.401202, -7.140743],[110.401211, -7.140705],[110.401217, -7.140666],[110.401232, -7.140631],[110.40124, -7.140607],[110.401241, -7.140582],[110.401251, -7.140569],[110.401265, -7.140556],[110.401267, -7.140536],[110.401259, -7.140518],[110.401249, -7.140504],[110.401257, -7.140486],[110.40127, -7.140466],[110.401282, -7.140444],[110.401303, -7.140432],[110.401303, -7.140398],[110.401292, -7.140385],[110.401276, -7.140355],[110.401235, -7.140331],[110.401208, -7.140352],[110.401176, -7.140345],[110.401117, -7.140336],[110.401087, -7.140355],[110.401054, -7.14035],[110.401052, -7.140317],[110.401022, -7.140261],[110.400981, -7.140229],[110.400925, -7.140191],[110.400874, -7.140171],[110.400815, -7.14015],[110.400766, -7.140125],[110.400722, -7.140093],[110.400693, -7.140099],[110.400652, -7.140128],[110.400622, -7.14012],[110.400596, -7.140121],[110.400561, -7.140121],[110.400522, -7.140094],[110.400471, -7.140112],[110.400407, -7.140117],[110.400377, -7.140101],[110.400337, -7.14012],[110.400298, -7.140129],[110.400255, -7.140131],[110.400229, -7.140126],[110.400191, -7.140136],[110.400169, -7.140144],[110.400133, -7.140131],[110.400096, -7.140144],[110.400058, -7.140148],[110.400015, -7.140147],[110.399977, -7.140158],[110.399945, -7.140156],[110.39991, -7.140182],[110.399883, -7.140188],[110.399845, -7.140188],[110.399804, -7.140191],[110.399771, -7.140191],[110.399693, -7.140188],[110.399648, -7.140164],[110.399596, -7.140172],[110.399551, -7.140196],[110.399516, -7.140177],[110.399469, -7.140148],[110.399408, -7.14013],[110.399378, -7.140126],[110.399338, -7.140158],[110.399311, -7.140203],[110.399302, -7.140234],[110.399295, -7.140261],[110.399251, -7.14026],[110.399181, -7.140293],[110.399187, -7.140319],[110.399173, -7.140351],[110.399175, -7.140382],[110.399179, -7.140408],[110.399185, -7.140452],[110.399185, -7.14048],[110.399179, -7.14052],[110.399192, -7.140556],[110.399223, -7.140586],[110.399225, -7.140609],[110.399189, -7.140641],[110.399213, -7.140668],[110.399236, -7.140689],[110.399257, -7.140729],[110.399234, -7.140752],[110.399196, -7.14078],[110.399208, -7.140797],[110.39923, -7.140824],[110.399213, -7.140839],[110.399175, -7.140879],[110.399185, -7.140907],[110.399206, -7.140941],[110.399221, -7.140958],[110.399242, -7.141029],[110.399247, -7.141062],[110.399307, -7.141025],[110.399348, -7.141014],[110.399428, -7.140984],[110.399494, -7.140943],[110.399583, -7.141048],[110.399647, -7.141107],[110.399722, -7.14105],[110.399801, -7.140977],[110.399814, -7.141076],[110.399855, -7.141046],[110.399862, -7.141147],[110.399907, -7.141112],[110.400013, -7.14103],[110.40014, -7.141059],[110.400266, -7.141092],[110.400286, -7.141176],[110.400305, -7.141215],[110.400278, -7.141334],[110.400285, -7.141366],[110.400238, -7.141378],[110.400232, -7.141417],[110.400207, -7.141443],[110.400198, -7.14149],[110.400256, -7.141451],[110.400236, -7.141468],[110.400274, -7.141442],[110.4003, -7.141421],[110.400358, -7.141356],[110.400398, -7.141302],[110.40043, -7.141263],[110.400466, -7.141226],[110.400509, -7.141177],[110.400542, -7.141137],[110.400547, -7.141141],[110.400547, -7.141141],[110.400564, -7.141197],[110.400604, -7.141241],[110.400629, -7.141255],[110.400625, -7.141274],[110.40064, -7.141301],[110.400657, -7.14134],[110.40071, -7.141368],[110.400772, -7.141374],[110.400766, -7.141408],[110.400772, -7.141461],[110.40077, -7.141504],[110.400791, -7.141541],[110.400852, -7.141558],[110.400899, -7.141564],[110.400924, -7.141559],[110.40094, -7.141538],[110.400958, -7.141519],[110.400996, -7.141511],[110.401035, -7.141521],[110.401051, -7.141538],[110.401085, -7.141539],[110.401116, -7.141549],[110.401159, -7.141569],[110.401216, -7.141584],[110.40127, -7.141599],[110.401312, -7.141628],[110.401344, -7.141655],[110.401375, -7.141657],[110.401407, -7.14167],[110.40144, -7.141694],[110.401468, -7.141702],[110.401495, -7.141713],[110.401548, -7.141711],[110.401579, -7.141727],[110.401594, -7.141761],[110.401633, -7.141805],[110.401672, -7.141833],[110.401698, -7.141865],[110.401717, -7.141867],[110.401733, -7.141881],[110.40177, -7.1419],[110.401806, -7.141927],[110.401826, -7.141916],[110.401829, -7.141907],[110.401848, -7.141875],[110.401835, -7.141855],[110.401827, -7.141822],[110.401839, -7.141778],[110.401876, -7.127469]]]]}}]}