{
"type": "FeatureCollection",
"name": "rivers",
"crs": { "type": "name", "properties": { "name": "urn:ogc:def:crs:OGC:1.3:CRS84" } },
"features": [
{ "type": "Feature", "properties": { "id": 1, "Sungai": "Nlgangon" }, "geometry": { "type": "MultiLineString", "coordinates": [ [ [ 110.098049240388917, -7.131447193547331 ], [ 110.096617322122981, -7.131294238641652 ], [ 110.094654943226729, -7.131320273519214 ], [ 110.092894334631566, -7.130509937955085 ], [ 110.091778089256081, -7.130194265064642 ], [ 110.090248540199283, -7.129045476092201 ], [ 110.09013463760995, -7.128199342571426 ] ] ] } },
{ "type": "Feature", "properties": { "id": 2, "Sungai": "Mbelik Wetan" }, "geometry": { "type": "MultiLineString", "coordinates": [ [ [ 110.109019686921769, -7.131993925976143 ], [ 110.109091282835067, -7.131798664394426 ], [ 110.109175896187139, -7.130184501985558 ], [ 110.10942322752399, -7.128798144755361 ], [ 110.11004155586609, -7.12725557825979 ] ] ] } },
{ "type": "Feature", "properties": { "id": 3, "Sungai": "Mbelik Kidul" }, "geometry": { "type": "MultiLineString", "coordinates": [ [ [ 110.106845774645322, -7.130151958388605 ], [ 110.107535698900733, -7.130483903077526 ], [ 110.108121483645888, -7.131440684827943 ], [ 110.10895459972788, -7.132260783471158 ], [ 110.108785373023721, -7.132879111813264 ], [ 110.109273526978015, -7.133634123262573 ], [ 110.1103214307999, -7.134480256783351 ], [ 110.110425570310156, -7.13533940774291 ], [ 110.110223800009038, -7.135742948345126 ], [ 110.110093625621232, -7.137396163070338 ] ] ] } }
]
}
